NORAD_CAT_ID,OBJECT_NAME,OBJECT_TYPE,EPOCH,MEAN_MOTION,ECCENTRICITY,INCLINATION,RA_OF_ASC_NODE,ARG_OF_PERICENTER,MEAN_ANOMALY,BSTAR,MEAN_MOTION_DOT,MEAN_MOTION_DDOT,TLE_LINE0,TLE_LINE1,TLE_LINE2,SEMIMAJOR_AXIS,PERIOD,APOGEE,PERIGEE,DECAYED
56788.0,STARLINK-6336,PAYLOAD,2024-06-15 14:41:28,14.98332657,0.0002954,69.9995,118.1791,270.2372,89.8448,1.8331e-07,-9.1e-07,0.0,0 STARLINK-6336,1 56788U 23078X   24167.61213417 -.00000091  00000-0  18331-6 0  9992,2 56788  69.9995 118.1791 0002954 270.2372  89.8448 14.98332657 58499,6950.185,96.107,574.103,569.997,0.0
56788.0,STARLINK-6336,PAYLOAD,2024-06-15 22:42:08,14.98331024,0.0002972,69.9993,117.3376,270.0981,89.9838,5.7688e-06,-2.4e-07,0.0,0 STARLINK-6336,1 56788U 23078X   24167.94593434 -.00000024  00000-0  57688-5 0  9991,2 56788  69.9993 117.3376 0002972 270.0981  89.9838 14.98331024 58548,6950.19,96.107,574.12,569.989,0.0
56788.0,STARLINK-6336,PAYLOAD,2024-06-16 06:42:48,14.98335292,0.0002995,69.9994,116.4964,270.7925,89.2891,2.913e-05,2.55e-06,0.0,0 STARLINK-6336,1 56788U 23078X   24168.27973031  .00000255  00000-0  29130-4 0  9998,2 56788  69.9994 116.4964 0002995 270.7925  89.2891 14.98335292 58590,6950.177,96.107,574.123,569.96,0.0
56788.0,STARLINK-6336,PAYLOAD,2024-06-16 22:44:09,14.98326315,0.000294,69.9997,114.8134,272.1388,87.9434,-3.9369e-05,-5.63e-06,0.0,0 STARLINK-6336,1 56788U 23078X   24168.94733760 -.00000563  00000-0 -39369-4 0  9994,2 56788  69.9997 114.8134 0002940 272.1388  87.9434 14.98326315 58698,6950.204,96.107,574.113,570.026,0.0
56788.0,STARLINK-6336,PAYLOAD,2024-06-17 21:10:02,14.98326946,0.0002985,69.9999,112.4569,272.2953,87.7864,5.0688e-05,5.12e-06,0.0,0 STARLINK-6336,1 56788U 23078X   24169.88197480  .00000512  00000-0  50688-4 0  9990,2 56788  69.9999 112.4569 0002985 272.2953  87.7864 14.98326946 59094,6950.202,96.107,574.142,569.993,0.0
56788.0,STARLINK-6336,PAYLOAD,2024-06-17 22:46:10,14.98327316,0.0002977,69.9998,112.2886,272.295,87.7868,3.5264e-05,3.28e-06,0.0,0 STARLINK-6336,1 56788U 23078X   24169.94873508  .00000328  00000-0  35264-4 0  9997,2 56788  69.9998 112.2886 0002977 272.2950  87.7868 14.98327316 58849,6950.201,96.107,574.135,569.997,0.0
56788.0,STARLINK-6336,PAYLOAD,2024-06-18 13:11:23,14.98336603,0.0002836,70.0,110.7739,270.7172,89.3662,-8.7236e-05,-1.134e-05,0.0,0 STARLINK-6336,1 56788U 23078X   24170.54957194 -.00001134  00000-0 -87236-4 0  9993,2 56788  70.0000 110.7739 0002836 270.7172  89.3662 14.98336603 58938,6950.172,96.107,574.009,570.066,0.0
56788.0,STARLINK-6336,PAYLOAD,2024-06-18 21:12:03,14.98329524,0.0002876,69.9997,109.9321,270.131,89.952,4.5651e-05,4.52e-06,0.0,0 STARLINK-6336,1 56788U 23078X   24170.88337306  .00000452  00000-0  45651-4 0  9992,2 56788  69.9997 109.9321 0002876 270.1310  89.9520 14.98329524 58987,6950.194,96.107,574.058,570.06,0.0
56788.0,STARLINK-6336,PAYLOAD,2024-06-19 13:13:23,14.98340617,0.0002972,69.9999,108.2486,273.9647,86.1172,-0.00015221,-1.909e-05,0.0,0 STARLINK-6336,1 56788U 23078X   24171.55096952 -.00001909  00000-0 -15221-3 0  9995,2 56788  69.9999 108.2486 0002972 273.9647  86.1172 14.98340617 59084,6950.16,96.106,574.091,569.959,0.0
56788.0,STARLINK-6336,PAYLOAD,2024-06-19 21:14:05,14.98323641,0.0002835,70.0005,107.4091,270.5449,89.5385,-7.2752e-05,-9.61e-06,0.0,0 STARLINK-6336,1 56788U 23078X   24171.88478023 -.00000961  00000-0 -72752-4 0  9994,2 56788  70.0005 107.4091 0002835 270.5449  89.5385 14.98323641 59394,6950.213,96.107,574.048,570.107,0.0
56788.0,STARLINK-6336,PAYLOAD,2024-06-19 22:50:13,14.9832186,0.0002918,69.9999,107.2393,271.6556,88.4269,-6.8882e-05,-9.15e-06,0.0,0 STARLINK-6336,1 56788U 23078X   24171.95154123 -.00000915  00000-0 -68882-4 0  9992,2 56788  69.9999 107.2393 0002918 271.6556  88.4269 14.98321860 59142,6950.218,96.108,574.111,570.055,0.0
56788.0,STARLINK-6336,PAYLOAD,2024-06-20 05:14:45,14.98321916,0.0002806,69.9999,106.5659,268.8194,91.2644,-7.2004e-05,-9.52e-06,0.0,0 STARLINK-6336,1 56788U 23078X   24172.21858240 -.00000952  00000-0 -72004-4 0  9995,2 56788  69.9999 106.5659 0002806 268.8194  91.2644 14.98321916 59186,6950.218,96.108,574.033,570.133,0.0
56788.0,STARLINK-6336,PAYLOAD,2024-06-20 22:52:13,14.98333136,0.0002889,69.9999,104.7141,269.671,90.4118,3.2137e-05,2.91e-06,0.0,0 STARLINK-6336,1 56788U 23078X   24172.95293262  .00000291  00000-0  32137-4 0  9990,2 56788  69.9999 104.7141 0002889 269.6710  90.4118 14.98333136 59551,6950.183,96.107,574.056,570.04,0.0
56788.0,STARLINK-6336,PAYLOAD,2024-06-21 05:16:45,14.98339007,0.0002897,69.9999,104.0413,271.3438,88.7389,6.7654e-05,7.15e-06,0.0,0 STARLINK-6336,1 56788U 23078X   24173.21996711  .00000715  00000-0  67654-4 0  9992,2 56788  69.9999 104.0413 0002897 271.3438  88.7389 14.98339007 59331,6950.165,96.106,574.044,570.017,0.0
56788.0,STARLINK-6336,PAYLOAD,2024-06-21 19:41:58,14.98322856,0.0002832,70.0,102.5255,272.7902,87.2933,2.3707e-05,1.9e-06,0.0,0 STARLINK-6336,1 56788U 23078X   24173.82081803  .00000190  00000-0  23707-4 0  9994,2 56788  70.0000 102.5255 0002832 272.7902  87.2933 14.98322856 59685,6950.215,96.107,574.048,570.112,0.0
56788.0,STARLINK-6336,PAYLOAD,2024-06-21 22:54:14,14.98322053,0.0002848,70.0,102.1889,272.7052,87.3781,1.5132e-05,8.8e-07,0.0,0 STARLINK-6336,1 56788U 23078X   24173.95433926  .00000088  00000-0  15132-4 0  9994,2 56788  70.0000 102.1889 0002848 272.7052  87.3781 14.98322053 59442,6950.217,96.108,574.062,570.103,0.0
56788.0,STARLINK-6336,PAYLOAD,2024-06-22 05:18:47,14.98323872,0.0002721,70.0003,101.5167,271.2119,88.8728,7.6533e-05,8.2e-06,0.0,0 STARLINK-6336,1 56788U 23078X   24174.22137744  .00000820  00000-0  76533-4 0  9990,2 56788  70.0003 101.5167 0002721 271.2119  88.8728 14.98323872 59486,6950.212,96.107,573.968,570.186,0.0
56788.0,STARLINK-6336,PAYLOAD,2024-06-22 21:20:07,14.98335372,0.00027,70.0004,99.8332,271.8304,88.2545,-2.8345e-05,-4.31e-06,0.0,0 STARLINK-6336,1 56788U 23078X   24174.88897284 -.00000431  00000-0 -28345-4 0  9992,2 56788  70.0004  99.8332 0002700 271.8304  88.2545 14.98335372 59848,6950.176,96.107,573.918,570.165,0.0
56788.0,STARLINK-6336,PAYLOAD,2024-06-22 22:56:15,14.98335165,0.0002706,70.0004,99.6649,271.8403,88.2446,-2.9755e-05,-4.48e-06,0.0,0 STARLINK-6336,1 56788U 23078X   24174.95573279 -.00000448  00000-0 -29755-4 0  9999,2 56788  70.0004  99.6649 0002706 271.8403  88.2446 14.98335165 59595,6950.177,96.107,573.923,570.161,0.0
56788.0,STARLINK-6336,PAYLOAD,2024-06-23 05:20:47,14.9833627,0.0002699,70.0005,98.9918,271.8812,88.2038,-1.3031e-05,-2.48e-06,0.0,0 STARLINK-6336,1 56788U 23078X   24175.22277077 -.00000248  00000-0 -13031-4 0  9995,2 56788  70.0005  98.9918 0002699 271.8812  88.2038 14.98336270 59632,6950.174,96.107,573.914,570.163,0.0
56788.0,STARLINK-6336,PAYLOAD,2024-06-23 22:58:16,14.98330496,0.0002743,70.0002,97.14,265.253,94.8316,4.094e-05,3.96e-06,0.0,0 STARLINK-6336,1 56788U 23078X   24175.95713074  .00000396  00000-0  40940-4 0  9998,2 56788  70.0002  97.1400 0002743 265.2530  94.8316 14.98330496 59748,6950.191,96.107,573.963,570.15,0.0
56788.0,STARLINK-6336,PAYLOAD,2024-06-24 03:46:40,14.98332949,0.000268,70.0002,96.6348,262.6733,97.4122,6.977e-05,7.4e-06,0.0,0 STARLINK-6336,1 56788U 23078X   24176.15740792  .00000740  00000-0  69770-4 0  9993,2 56788  70.0002  96.6348 0002680 262.6733  97.4122 14.98332949 60032,6950.184,96.107,573.911,570.186,0.0
56788.0,STARLINK-6336,PAYLOAD,2024-06-24 05:22:48,14.9833411,0.0002684,70.0003,96.4666,264.0275,96.0578,7.9818e-05,8.6e-06,0.0,0 STARLINK-6336,1 56788U 23078X   24176.22416682  .00000860  00000-0  79818-4 0  9996,2 56788  70.0003  96.4666 0002684 264.0275  96.0578 14.98334110 59787,6950.18,96.107,573.911,570.18,0.0
56788.0,STARLINK-6336,PAYLOAD,2024-06-24 19:48:01,14.983279,0.0002467,70.0009,94.9523,259.5126,100.5755,-3.5286e-05,-5.14e-06,0.0,0 STARLINK-6336,1 56788U 23078X   24176.82501327 -.00000514  00000-0 -35286-4 0  9992,2 56788  70.0009  94.9523 0002467 259.5126 100.5755 14.98327900 60139,6950.199,96.107,573.779,570.35,0.0
56788.0,STARLINK-6336,PAYLOAD,2024-06-24 21:24:09,14.98326705,0.0002499,70.0008,94.784,257.9098,102.1781,-4.8747e-05,-6.74e-06,0.0,0 STARLINK-6336,1 56788U 23078X   24176.89177433 -.00000674  00000-0 -48747-4 0  9999,2 56788  70.0008  94.7840 0002499 257.9098 102.1781 14.98326705 59882,6950.203,96.107,573.805,570.331,0.0
56788.0,STARLINK-6336,PAYLOAD,2024-06-25 03:48:41,14.9832547,0.0002525,70.0008,94.1108,260.0166,100.0708,-6.1251e-05,-8.24e-06,0.0,0 STARLINK-6336,1 56788U 23078X   24177.15881603 -.00000824  00000-0 -61251-4 0  9992,2 56788  70.0008  94.1108 0002525 260.0166 100.0708 14.98325470 59923,6950.207,96.107,573.827,570.317,0.0
56788.0,STARLINK-6336,PAYLOAD,2024-06-25 19:50:01,14.98332837,0.0002775,70.0011,92.4292,264.3736,95.7107,4.8365e-05,4.84e-06,0.0,0 STARLINK-6336,1 56788U 23078X   24177.82640710  .00000484  00000-0  48365-4 0  9999,2 56788  70.0011  92.4292 0002775 264.3736  95.7107 14.98332837 60288,6950.184,96.107,573.978,570.12,0.0
56788.0,STARLINK-6336,PAYLOAD,2024-06-25 21:26:09,14.9833603,0.000264,70.0007,92.2593,259.2258,100.8604,2.4641e-05,2.01e-06,0.0,0 STARLINK-6336,1 56788U 23078X   24177.89316555  .00000201  00000-0  24641-4 0  9991,2 56788  70.0007  92.2593 0002640 259.2258 100.8604 14.98336030 60030,6950.174,96.107,573.874,570.204,0.0
56788.0,STARLINK-6336,PAYLOAD,2024-06-26 03:50:41,14.98338824,0.0002613,70.0008,91.5861,258.5221,101.5644,5.744e-05,5.93e-06,0.0,0 STARLINK-6336,1 56788U 23078X   24178.16020172  .00000593  00000-0  57440-4 0  9996,2 56788  70.0008  91.5861 0002613 258.5221 101.5644 14.98338824 60331,6950.166,96.106,573.847,570.215,0.0
56788.0,STARLINK-6336,PAYLOAD,2024-06-27 03:52:43,14.98325534,0.0002769,70.0005,89.0613,269.7019,90.3823,1.1909e-05,4.9e-07,0.0,0 STARLINK-6336,1 56788U 23078X   24179.16161144  .00000049  00000-0  11909-4 0  9998,2 56788  70.0005  89.0613 0002769 269.7019  90.3823 14.98325534 60480,6950.207,96.107,573.996,570.147,0.0
